{
  "type": "FeatureCollection",
  "features": [
    {
      "type": "Feature",
      "properties": {
        "norad_id": 30837,
        "name": "FENGYUN 1C DEB",
        "group": "fengyun-1c-debris",
        "lat": 40.79649100670159,
        "lon": 161.5670506638061,
        "alt_km": 817.0721712906743,
        "timestamp": "2025-12-13T18:50:04.709996+00:00",
        "meta_object_name": "FENGYUN 1C DEB",
        "meta_object_id": "1999-025AVX",
        "meta_epoch": "2025-12-13T04:53:37.269312",
        "meta_mean_motion": 14.1452246,
        "meta_eccentricity": 0.00329745,
        "meta_inclination": 98.6788,
        "meta_ra_of_asc_node": 333.4275,
        "meta_arg_of_pericenter": 132.0978,
        "meta_mean_anomaly": 290.0836,
        "meta_ephemeris_type": 0,
        "meta_classification_type": "U",
        "meta_norad_cat_id": 30837,
        "meta_element_set_no": 999,
        "meta_rev_at_epoch": 96825,
        "meta_bstar": 0.00045813382,
        "meta_mean_motion_dot": 8.41e-06,
        "meta_mean_motion_ddot": 0,
        "tle_line1": "1 30837U 99025AVX 25347.20390358  .00000841  00000+0  45813-3 0  9993",
        "tle_line2": "2 30837  98.6788 333.4275 0032974 132.0978 290.0836 14.14522460968258"
      },
      "geometry": {
        "type": "Point",
        "coordinates": [
          161.5670506638061,
          40.79649100670159
        ]
      }
    },
    {
      "type": "Feature",
      "properties": {
        "norad_id": 30838,
        "name": "FENGYUN 1C DEB",
        "group": "fengyun-1c-debris",
        "lat": -80.94441544356052,
        "lon": -5.8950375736188265,
        "alt_km": 750.2644068503405,
        "timestamp": "2025-12-13T18:50:04.710008+00:00",
        "meta_object_name": "FENGYUN 1C DEB",
        "meta_object_id": "1999-025AVY",
        "meta_epoch": "2025-12-13T01:00:30.218688",
        "meta_mean_motion": 14.47748372,
        "meta_eccentricity": 0.00340353,
        "meta_inclination": 99.0421,
        "meta_ra_of_asc_node": 260.9331,
        "meta_arg_of_pericenter": 157.252,
        "meta_mean_anomaly": 203.0188,
        "meta_ephemeris_type": 0,
        "meta_classification_type": "U",
        "meta_norad_cat_id": 30838,
        "meta_element_set_no": 999,
        "meta_rev_at_epoch": 97318,
        "meta_bstar": 0.003660788,
        "meta_mean_motion_dot": 0.00013598,
        "meta_mean_motion_ddot": 0,
        "tle_line1": "1 30838U 99025AVY 25347.04201642  .00013598  00000+0  36608-2 0  9997",
        "tle_line2": "2 30838  99.0421 260.9331 0034035 157.2520 203.0188 14.47748372973187"
      },
      "geometry": {
        "type": "Point",
        "coordinates": [
          -5.8950375736188265,
          -80.94441544356052
        ]
      }
    },
    {
      "type": "Feature",
      "properties": {
        "norad_id": 30840,
        "name": "FENGYUN 1C DEB",
        "group": "fengyun-1c-debris",
        "lat": 81.37009320180664,
        "lon": -69.2475514165621,
        "alt_km": 650.8389126773263,
        "timestamp": "2025-12-13T18:50:04.710018+00:00",
        "meta_object_name": "FENGYUN 1C DEB",
        "meta_object_id": "1999-025AWA",
        "meta_epoch": "2025-12-13T00:22:21.414432",
        "meta_mean_motion": 14.61109182,
        "meta_eccentricity": 0.02177234,
        "meta_inclination": 98.024,
        "meta_ra_of_asc_node": 358.3542,
        "meta_arg_of_pericenter": 9.7486,
        "meta_mean_anomaly": 350.7837,
        "meta_ephemeris_type": 0,
        "meta_classification_type": "U",
        "meta_norad_cat_id": 30840,
        "meta_element_set_no": 999,
        "meta_rev_at_epoch": 73135,
        "meta_bstar": 0.0010796516,
        "meta_mean_motion_dot": 7.389e-05,
        "meta_mean_motion_ddot": 0,
        "tle_line1": "1 30840U 99025AWA 25347.01552563  .00007389  00000+0  10797-2 0  9990",
        "tle_line2": "2 30840  98.0240 358.3542 0217723   9.7486 350.7837 14.61109182731351"
      },
      "geometry": {
        "type": "Point",
        "coordinates": [
          -69.2475514165621,
          81.37009320180664
        ]
      }
    },
    {
      "type": "Feature",
      "properties": {
        "norad_id": 30843,
        "name": "FENGYUN 1C DEB",
        "group": "fengyun-1c-debris",
        "lat": -59.50739203356358,
        "lon": -135.86217804270112,
        "alt_km": 782.9467445052214,
        "timestamp": "2025-12-13T18:50:04.710029+00:00",
        "meta_object_name": "FENGYUN 1C DEB",
        "meta_object_id": "1999-025AWD",
        "meta_epoch": "2025-12-12T21:54:13.697856",
        "meta_mean_motion": 14.52476426,
        "meta_eccentricity": 0.01488958,
        "meta_inclination": 98.8425,
        "meta_ra_of_asc_node": 58.5476,
        "meta_arg_of_pericenter": 119.0949,
        "meta_mean_anomaly": 242.5248,
        "meta_ephemeris_type": 0,
        "meta_classification_type": "U",
        "meta_norad_cat_id": 30843,
        "meta_element_set_no": 999,
        "meta_rev_at_epoch": 99327,
        "meta_bstar": 0.00028641796,
        "meta_mean_motion_dot": 1.295e-05,
        "meta_mean_motion_ddot": 0,
        "tle_line1": "1 30843U 99025AWD 25346.91265854  .00001295  00000+0  28642-3 0  9994",
        "tle_line2": "2 30843  98.8425  58.5476 0148895 119.0949 242.5248 14.52476426993277"
      },
      "geometry": {
        "type": "Point",
        "coordinates": [
          -135.86217804270112,
          -59.50739203356358
        ]
      }
    },
    {
      "type": "Feature",
      "properties": {
        "norad_id": 30845,
        "name": "FENGYUN 1C DEB",
        "group": "fengyun-1c-debris",
        "lat": -60.06147725248901,
        "lon": 153.41324231012152,
        "alt_km": 855.300290828749,
        "timestamp": "2025-12-13T18:50:04.710040+00:00",
        "meta_object_name": "FENGYUN 1C DEB",
        "meta_object_id": "1999-025AWF",
        "meta_epoch": "2025-12-13T05:44:31.180128",
        "meta_mean_motion": 13.768586,
        "meta_eccentricity": 0.01920353,
        "meta_inclination": 98.3793,
        "meta_ra_of_asc_node": 347.7601,
        "meta_arg_of_pericenter": 269.1352,
        "meta_mean_anomaly": 150.3978,
        "meta_ephemeris_type": 0,
        "meta_classification_type": "U",
        "meta_norad_cat_id": 30845,
        "meta_element_set_no": 999,
        "meta_rev_at_epoch": 94250,
        "meta_bstar": 0.00051696086,
        "meta_mean_motion_dot": 5.45e-06,
        "meta_mean_motion_ddot": 0,
        "tle_line1": "1 30845U 99025AWF 25347.23924977  .00000545  00000+0  51696-3 0  9992",
        "tle_line2": "2 30845  98.3793 347.7601 0192035 269.1352 150.3978 13.76858600942504"
      },
      "geometry": {
        "type": "Point",
        "coordinates": [
          153.41324231012152,
          -60.06147725248901
        ]
      }
    },
    {
      "type": "Feature",
      "properties": {
        "norad_id": 30846,
        "name": "FENGYUN 1C DEB",
        "group": "fengyun-1c-debris",
        "lat": -17.331463985203364,
        "lon": 164.02660778928936,
        "alt_km": 720.2086209010922,
        "timestamp": "2025-12-13T18:50:04.710052+00:00",
        "meta_object_name": "FENGYUN 1C DEB",
        "meta_object_id": "1999-025AWG",
        "meta_epoch": "2025-12-13T06:24:14.016960",
        "meta_mean_motion": 14.41549117,
        "meta_eccentricity": 0.00540116,
        "meta_inclination": 99.3208,
        "meta_ra_of_asc_node": 160.5241,
        "meta_arg_of_pericenter": 334.9211,
        "meta_mean_anomaly": 201.1091,
        "meta_ephemeris_type": 0,
        "meta_classification_type": "U",
        "meta_norad_cat_id": 30846,
        "meta_element_set_no": 999,
        "meta_rev_at_epoch": 97937,
        "meta_bstar": 0.0013282649,
        "meta_mean_motion_dot": 4.343e-05,
        "meta_mean_motion_ddot": 0,
        "tle_line1": "1 30846U 99025AWG 25347.26682890  .00004343  00000+0  13283-2 0  9990",
        "tle_line2": "2 30846  99.3208 160.5241 0054011 334.9211 201.1091 14.41549117979373"
      },
      "geometry": {
        "type": "Point",
        "coordinates": [
          164.02660778928936,
          -17.331463985203364
        ]
      }
    },
    {
      "type": "Feature",
      "properties": {
        "norad_id": 30847,
        "name": "FENGYUN 1C DEB",
        "group": "fengyun-1c-debris",
        "lat": -37.43697504570931,
        "lon": 154.67601346362878,
        "alt_km": 794.554622558976,
        "timestamp": "2025-12-13T18:50:04.710063+00:00",
        "meta_object_name": "FENGYUN 1C DEB",
        "meta_object_id": "1999-025AWH",
        "meta_epoch": "2025-12-13T04:01:13.837728",
        "meta_mean_motion": 14.17027087,
        "meta_eccentricity": 0.00654841,
        "meta_inclination": 98.7316,
        "meta_ra_of_asc_node": 147.3131,
        "meta_arg_of_pericenter": 326.9533,
        "meta_mean_anomaly": 88.188,
        "meta_ephemeris_type": 0,
        "meta_classification_type": "U",
        "meta_norad_cat_id": 30847,
        "meta_element_set_no": 999,
        "meta_rev_at_epoch": 96061,
        "meta_bstar": 0.0027996212,
        "meta_mean_motion_dot": 5.708e-05,
        "meta_mean_motion_ddot": 0,
        "tle_line1": "1 30847U 99025AWH 25347.16752127  .00005708  00000+0  27996-2 0  9993",
        "tle_line2": "2 30847  98.7316 147.3131 0065484 326.9533  88.1880 14.17027087960618"
      },
      "geometry": {
        "type": "Point",
        "coordinates": [
          154.67601346362878,
          -37.43697504570931
        ]
      }
    }
  ]
}